H1 CPF 01  gfz 2021 06 08 12  6592 tandemx   
H2 1003001  6202 36605    2021 06 08 12 59 42 2021 06 13 00 00 42   120 1 1  0 0 0
H9
10 0 59376   2862.000000  0    1416760.378   6737241.872   -273267.914
10 0 59376   2982.000000  0    1570475.123   6606502.607  -1172759.361
10 0 59376   3102.000000  0    1693453.915   6358001.983  -2051634.496
10 0 59376   3222.000000  0    1781557.272   5996743.093  -2894470.121
10 0 59376   3342.000000  0    1831366.366   5529767.955  -3686507.081
10 0 59376   3462.000000  0    1840274.658   4966009.489  -4413911.267
10 0 59376   3582.000000  0    1806561.384   4316108.150  -5064013.249
10 0 59376   3702.000000  0    1729445.354   3592200.137  -5625522.374
10 0 59376   3822.000000  0    1609118.929   2807682.577  -6088714.215
10 0 59376   3942.000000  0    1446760.562   1976959.333  -6445588.036
10 0 59376   4062.000000  0    1244527.237   1115175.190  -6689992.728
10 0 59376   4182.000000  0    1005527.191    237942.023  -6817723.256
10 0 59376   4302.000000  0     733772.175   -638939.888  -6826585.138
10 0 59376   4422.000000  0     434110.689  -1499760.448  -6716426.689
10 0 59376   4542.000000  0     112143.841  -2329172.862  -6489140.168
10 0 59376   4662.000000  0    -225875.760  -3112460.136  -6148634.796
10 0 59376   4782.000000  0    -573161.786  -3835793.627  -5700777.046
10 0 59376   4902.000000  0    -922525.108  -4486475.859  -5153299.180
10 0 59376   5022.000000  0   -1266517.189  -5053166.671  -4515677.896
10 0 59376   5142.000000  0   -1597583.992  -5526087.962  -3798981.422
10 0 59376   5262.000000  0   -1908226.943  -5897201.984  -3015686.563
10 0 59376   5382.000000  0   -2191167.440  -6160359.080  -2179468.317
10 0 59376   5502.000000  0   -2439511.533  -6311411.797  -1304964.561
10 0 59376   5622.000000  0   -2646910.619  -6348291.520   -407518.688
10 0 59376   5742.000000  0   -2807714.021  -6271043.674    497094.908
10 0 59376   5862.000000  0   -2917108.959  -6081819.935   1392955.644
10 0 59376   5982.000000  0   -2971244.367  -5784828.004   2264285.967
10 0 59376   6102.000000  0   -2967335.122  -5386239.313   3095738.282
10 0 59376   6222.000000  0   -2903743.758  -4894057.789   3872672.737
10 0 59376   6342.000000  0   -2780037.897  -4317953.395   4581420.102
10 0 59376   6462.000000  0   -2597022.999  -3669064.786   5209524.652
10 0 59376   6582.000000  0   -2356749.030  -2959775.506   5745962.955
10 0 59376   6702.000000  0   -2062490.275  -2203470.183   6181333.484
10 0 59376   6822.000000  0   -1718700.271  -1414277.449   6508016.698
10 0 59376   6942.000000  0   -1330942.222   -606801.801   6720303.580
10 0 59376   7062.000000  0    -905797.382    204149.465   6814487.740
10 0 59376   7182.000000  0    -450753.658   1003836.438   6788925.652
10 0 59376   7302.000000  0      25926.273   1777854.149   6644064.424
10 0 59376   7422.000000  0     515354.937   2512392.036   6382434.473
10 0 59376   7542.000000  0    1008185.233   3194480.242   6008607.530
10 0 59376   7662.000000  0    1494787.762   3812220.147   5529121.929
10 0 59376   7782.000000  0    1965437.976   4354995.970   4952374.218
10 0 59376   7902.000000  0    2410510.871   4813663.413   4288478.049
10 0 59376   8022.000000  0    2820678.257   5180709.867   3549090.541
10 0 59376   8142.000000  0    3187104.368   5450384.432   2747211.940
10 0 59376   8262.000000  0    3501638.145   5618797.755   1896956.386
10 0 59376   8382.000000  0    3756993.342   5683980.764   1013297.511
10 0 59376   8502.000000  0    3946912.462   5645906.077    111798.894
10 0 59376   8622.000000  0    4066312.608   5506469.154   -791668.995
10 0 59376   8742.000000  0    4111407.608   5269430.340  -1681216.208
10 0 59376   8862.000000  0    4079804.453   4940320.383  -2541220.606
10 0 59376   8982.000000  0    3970570.530   4526311.026  -3356608.712
10 0 59376   9102.000000  0    3784270.205   4036054.054  -4113123.383
10 0 59376   9222.000000  0    3522971.568   3479494.540  -4797571.820
10 0 59376   9342.000000  0    3190223.853   2867663.358  -5398051.868
10 0 59376   9462.000000  0    2791004.932   2212453.036  -5904151.508
10 0 59376   9582.000000  0    2331642.154   1526383.347  -6307119.276
10 0 59376   9702.000000  0    1819707.786    822361.040  -6600003.636
10 0 59376   9822.000000  0    1263893.052    113439.594  -6777760.828
10 0 59376   9942.000000  0     673861.344   -587418.253  -6837334.154
10 0 59376  10062.000000  0      60081.494  -1267572.905  -6777699.919
10 0 59376  10182.000000  0    -566353.165  -1914929.223  -6599881.678
10 0 59376  10302.000000  0   -1193919.832  -2518145.834  -6306935.840
10 0 59376  10422.000000  0   -1810873.397  -3066831.231  -5903905.061
10 0 59376  10542.000000  0   -2405460.980  -3551721.352  -5397740.118
10 0 59376  10662.000000  0   -2966142.697  -3964838.098  -4797192.499
10 0 59376  10782.000000  0   -3481815.874  -4299626.025  -4112674.639
10 0 59376  10902.000000  0   -3942036.193  -4551062.491  -3356089.077
10 0 59376  11022.000000  0   -4337232.184  -4715739.870  -2540629.648
10 0 59376  11142.000000  0   -4658908.380  -4791917.019  -1680555.778
10 0 59376  11262.000000  0   -4899831.593  -4779538.218   -790943.885
10 0 59376  11382.000000  0   -5054195.348  -4680218.615    112579.765
10 0 59376  11502.000000  0   -5117758.154  -4497196.245   1014119.865
10 0 59376  11622.000000  0   -5087950.921  -4235250.161   1897801.027
10 0 59376  11742.000000  0   -4963950.032  -3900586.506   2748056.844
10 0 59376  11862.000000  0   -4746714.916  -3500696.241   3549912.270
10 0 59376  11982.000000  0   -4438989.547  -3044188.638   4289253.853
10 0 59376  12102.000000  0   -4045266.892  -2540603.786   4953082.426
10 0 59376  12222.000000  0   -3571718.474  -2000210.215   5529740.944
10 0 59376  12342.000000  0   -3026092.740  -1433793.658   6009116.472
10 0 59376  12462.000000  0   -2417582.773   -852439.719   6382814.730
10 0 59376  12582.000000  0   -1756665.234   -267314.067   6644302.056
10 0 59376  12702.000000  0   -1054915.033    310552.631   6789012.034
10 0 59376  12822.000000  0    -324801.455    870470.830   6814419.617
10 0 59376  12942.000000  0     420533.224   1402289.168   6720082.705
10 0 59376  13062.000000  0    1167509.749   1896578.492   6507649.619
10 0 59376  13182.000000  0    1902358.759   2344799.216   6180831.357
10 0 59376  13302.000000  0    2611373.769   2739449.073   5745340.906
10 0 59376  13422.000000  0    3281168.054   3074190.855   5208800.141
10 0 59376  13542.000000  0    3898930.998   3343957.346   4580611.828
10 0 59376  13662.000000  0    4452675.784   3545030.312   3871799.477
10 0 59376  13782.000000  0    4931479.152   3675093.720   3094820.053
10 0 59376  13902.000000  0    5325704.922   3733258.693   2263343.469
10 0 59376  14022.000000  0    5627203.144   3720057.551   1392009.874
10 0 59376  14142.000000  0    5829483.156   3637409.722    496166.515
10 0 59376  14262.000000  0    5927854.454   3488558.209   -408410.906
10 0 59376  14382.000000  0    5919531.307   3277978.529  -1305804.847
10 0 59376  14502.000000  0    5803699.118   3011262.685  -2180244.514
10 0 59376  14622.000000  0    5581540.317   2694981.949  -3016389.566
10 0 59376  14742.000000  0    5256221.073   2336531.839  -3799603.510
10 0 59376  14862.000000  0    4832839.563   1943962.842  -4516211.746
10 0 59376  14982.000000  0    4318334.703   1525801.089  -5153738.399
10 0 59376  15102.000000  0    3721361.820   1090864.852  -5701115.728
10 0 59376  15222.000000  0    3052138.526    648081.179  -6148867.182
10 0 59376  15342.000000  0    2322262.652    206305.541  -6489260.532
10 0 59376  15462.000000  0    1544508.116   -225851.113  -6716429.292
10 0 59376  15582.000000  0     732602.655   -640185.916  -6826464.539
10 0 59376  15702.000000  0     -99012.521  -1029055.850  -6817474.997
10 0 59376  15822.000000  0    -935433.725  -1385514.340  -6689614.345
10 0 59376  15942.000000  0   -1761554.983  -1703431.960  -6445079.711
10 0 59376  16062.000000  0   -2562335.006  -1977600.156  -6088077.962
10 0 59376  16182.000000  0   -3323064.835  -2203815.435  -5624760.475
10 0 59376  16302.000000  0   -4029635.060  -2378944.585  -5063129.219
10 0 59376  16422.000000  0   -4668799.620  -2500968.975  -4412910.311
10 0 59376  16542.000000  0   -5228428.386  -2569006.351  -3685396.247
10 0 59376  16662.000000  0   -5697744.937  -2583309.913  -2893259.056
10 0 59376  16782.000000  0   -6067543.850  -2545243.699  -2050335.268
10 0 59376  16902.000000  0   -6330381.429  -2457234.868  -1171386.551
10 0 59376  17022.000000  0   -6480735.335  -2322703.400   -271839.577
10 0 59376  17142.000000  0   -6515127.798  -2145970.496    632489.675
10 0 59376  17262.000000  0   -6432209.455  -1932147.591   1525681.756
10 0 59376  17382.000000  0   -6232799.739  -1687008.878   2392003.742
10 0 59376  17502.000000  0   -5919882.341  -1416850.824   3216195.113
10 0 59376  17622.000000  0   -5498558.465  -1128341.891   3983744.159
10 0 59376  17742.000000  0   -4975955.567   -828366.287   4681149.769
10 0 59376  17862.000000  0   -4361096.615   -523866.482   5296158.987
10 0 59376  17982.000000  0   -3664736.308   -221688.407   5817980.792
10 0 59376  18102.000000  0   -2899164.075     71568.282   6237472.832
10 0 59376  18222.000000  0   -2077979.033    349690.675   6547296.089
10 0 59376  18342.000000  0   -1215842.816    606980.115   6742037.194
10 0 59376  18462.000000  0    -328214.807    838366.520   6818297.113
10 0 59376  18582.000000  0     568925.323   1039506.696   6774746.078
10 0 59376  18702.000000  0    1459364.264   1206865.335   6612145.290
10 0 59376  18822.000000  0    2326947.207   1337777.587   6333334.421
10 0 59376  18942.000000  0    3155870.353   1430491.482   5943185.444
10 0 59376  19062.000000  0    3930971.034   1484190.084   5448522.875
10 0 59376  19182.000000  0    4638007.972   1498992.834   4858009.414
10 0 59376  19302.000000  0    5263928.352   1475936.941   4182001.900
99
